start=new Date('2022-11-14T00:00:00.000Z').valueOf();
sats=[{"CENTER_NAME":"EARTH","APOAPSIS":"541.746","ELEMENT_SET_NO":"999","REV_AT_EPOCH":"5372","TLE_LINE1":"1 50201U 21125AX  22317.41465323  .00000954  00000-0  78057-4 0  9991","GP_ID":"217627868","RA_OF_ASC_NODE":"281.2492","ARG_OF_PERICENTER":"24.6382","EPOCH":"2022-11-13T09:57:06.039072","OBJECT_NAME":"STARLINK-3255","RCS_SIZE":"LARGE","MEAN_ANOMALY":"335.4747","OBJECT_TYPE":"PAYLOAD","REF_FRAME":"TEME","FILE":"3653238","COUNTRY_CODE":"US","CLASSIFICATION_TYPE":"U","OBJECT_ID":"2021-125AX","SITE":"AFWTR","MEAN_MOTION":"15.08833883","DECAY_DATE":null,"TLE_LINE2":"2 50201  53.2175 281.2492 0002865  24.6382 335.4747 15.08833883 53724","BSTAR":"0.00007805700000","MEAN_ELEMENT_THEORY":"SGP4","NORAD_CAT_ID":"50201","TIME_SYSTEM":"UTC","MEAN_MOTION_DDOT":"0.0000000000000","PERIAPSIS":"537.782","MEAN_MOTION_DOT":"0.00000954","PERIOD":"95.438","EPHEMERIS_TYPE":"0","LAUNCH_DATE":"2021-12-18","SEMIMAJOR_AXIS":"6917.899","INCLINATION":"53.2175","ECCENTRICITY":"0.00028650"},{"OBJECT_TYPE":"PAYLOAD","MEAN_ANOMALY":"333.3399","RCS_SIZE":"LARGE","OBJECT_NAME":"STARLINK-3256","EPOCH":"2022-11-13T07:55:12.094176","FILE":"3653238","REF_FRAME":"TEME","COUNTRY_CODE":"US","ELEMENT_SET_NO":"999","APOAPSIS":"541.509","CENTER_NAME":"EARTH","ARG_OF_PERICENTER":"26.7725","REV_AT_EPOCH":"5370","GP_ID":"217627608","RA_OF_ASC_NODE":"281.6059","TLE_LINE1":"1 50202U 21125AY  22317.33000109  .00001953  00000-0  14077-3 0  9991","PERIOD":"95.437","PERIAPSIS":"537.960","MEAN_MOTION_DDOT":"0.0000000000000","MEAN_MOTION_DOT":"0.00001953","SEMIMAJOR_AXIS":"6917.870","LAUNCH_DATE":"2021-12-18","INCLINATION":"53.2166","ECCENTRICITY":"0.00025650","EPHEMERIS_TYPE":"0","OBJECT_ID":"2021-125AY","MEAN_MOTION":"15.08843504","SITE":"AFWTR","CLASSIFICATION_TYPE":"U","BSTAR":"0.00014077000000","TLE_LINE2":"2 50202  53.2166 281.6059 0002565  26.7725 333.3399 15.08843504 53708","TIME_SYSTEM":"UTC","NORAD_CAT_ID":"50202","MEAN_ELEMENT_THEORY":"SGP4","DECAY_DATE":null},{"INCLINATION":"53.2161","ECCENTRICITY":"0.00030160","SEMIMAJOR_AXIS":"6917.890","LAUNCH_DATE":"2021-12-18","EPHEMERIS_TYPE":"0","PERIOD":"95.438","MEAN_MOTION_DOT":"-0.00003915","MEAN_MOTION_DDOT":"0.0000000000000","PERIAPSIS":"537.669","MEAN_ELEMENT_THEORY":"SGP4","TIME_SYSTEM":"UTC","NORAD_CAT_ID":"50203","TLE_LINE2":"2 50203  53.2161 280.3244 0003016  28.4677 331.6479 15.08836774 53816","BSTAR":"-0.00022795000000","DECAY_DATE":null,"SITE":"AFWTR","MEAN_MOTION":"15.08836774","OBJECT_ID":"2021-125AZ","CLASSIFICATION_TYPE":"U","COUNTRY_CODE":"US","REF_FRAME":"TEME","FILE":"3653957","RCS_SIZE":"LARGE","OBJECT_TYPE":"PAYLOAD","MEAN_ANOMALY":"331.6479","EPOCH":"2022-11-13T14:53:50.045568","OBJECT_NAME":"STARLINK-3257","ARG_OF_PERICENTER":"28.4677","TLE_LINE1":"1 50203U 21125AZ  22317.62071812 -.00003915  00000-0 -22795-3 0  9991","RA_OF_ASC_NODE":"280.3244","GP_ID":"217693190","REV_AT_EPOCH":"5381","ELEMENT_SET_NO":"999","CENTER_NAME":"EARTH","APOAPSIS":"541.842"},{"CLASSIFICATION_TYPE":"U","SITE":"AFWTR","MEAN_MOTION":"15.08841706","OBJECT_ID":"2021-125BA","DECAY_DATE":null,"MEAN_ELEMENT_THEORY":"SGP4","NORAD_CAT_ID":"50204","TIME_SYSTEM":"UTC","TLE_LINE2":"2 50204  53.2166 280.4050 0002750  30.6795 329.4358 15.08841706 53809","BSTAR":"0.00004773100000","MEAN_MOTION_DOT":"0.00000471","MEAN_MOTION_DDOT":"0.0000000000000","PERIAPSIS":"537.838","PERIOD":"95.437","EPHEMERIS_TYPE":"0","INCLINATION":"53.2166","ECCENTRICITY":"0.00027500","SEMIMAJOR_AXIS":"6917.875","LAUNCH_DATE":"2021-12-18","CENTER_NAME":"EARTH","APOAPSIS":"541.643","ELEMENT_SET_NO":"999","TLE_LINE1":"1 50204U 21125BA  22317.60232330  .00000471  00000-0  47731-4 0  9994","RA_OF_ASC_NODE":"280.4050","GP_ID":"217692940","REV_AT_EPOCH":"5380","ARG_OF_PERICENTER":"30.6795","EPOCH":"2022-11-13T14:27:20.733120","OBJECT_NAME":"STARLINK-3254","RCS_SIZE":"LARGE","OBJECT_TYPE":"PAYLOAD","MEAN_ANOMALY":"329.4358","COUNTRY_CODE":"US","REF_FRAME":"TEME","FILE":"3653957"},{"ECCENTRICITY":"0.00032360","INCLINATION":"53.2169","LAUNCH_DATE":"2021-12-18","SEMIMAJOR_AXIS":"6917.866","EPHEMERIS_TYPE":"0","PERIOD":"95.437","MEAN_MOTION_DOT":"0.00011376","MEAN_MOTION_DDOT":"0.0000000000000","PERIAPSIS":"537.492","MEAN_ELEMENT_THEORY":"SGP4","NORAD_CAT_ID":"50205","TIME_SYSTEM":"UTC","TLE_LINE2":"2 50205  53.2169 249.4725 0003236  45.7763 314.3494 15.08844841 54201","BSTAR":"0.00073160000000","DECAY_DATE":null,"SITE":"AFWTR","MEAN_MOTION":"15.08844841","OBJECT_ID":"2021-125BB","CLASSIFICATION_TYPE":"U","COUNTRY_CODE":"US","REF_FRAME":"TEME","FILE":"3653957","RCS_SIZE":"LARGE","OBJECT_TYPE":"PAYLOAD","MEAN_ANOMALY":"314.3494","EPOCH":"2022-11-13T19:24:09.946944","OBJECT_NAME":"STARLINK-3260","ARG_OF_PERICENTER":"45.7763","TLE_LINE1":"1 50205U 21125BB  22317.80844846  .00011376  00000-0  73160-3 0  9998","RA_OF_ASC_NODE":"249.4725","GP_ID":"217693691","REV_AT_EPOCH":"5420","ELEMENT_SET_NO":"999","CENTER_NAME":"EARTH","APOAPSIS":"541.969"},{"ARG_OF_PERICENTER":"19.3375","TLE_LINE1":"1 50206U 21125BC  22317.27479707 -.00000916  00000-0 -39383-4 0  9990","GP_ID":"217665839","RA_OF_ASC_NODE":"281.8751","REV_AT_EPOCH":"5162","ELEMENT_SET_NO":"999","CENTER_NAME":"EARTH","APOAPSIS":"541.757","COUNTRY_CODE":"US","REF_FRAME":"TEME","FILE":"3653716","RCS_SIZE":"LARGE","OBJECT_TYPE":"PAYLOAD","MEAN_ANOMALY":"340.7729","EPOCH":"2022-11-13T06:35:42.466848","OBJECT_NAME":"STARLINK-3258","MEAN_ELEMENT_THEORY":"SGP4","NORAD_CAT_ID":"50206","TIME_SYSTEM":"UTC","TLE_LINE2":"2 50206  53.2175 281.8751 0002971  19.3375 340.7729 15.08854168 51629","BSTAR":"-0.00003938300000","DECAY_DATE":null,"SITE":"AFWTR","MEAN_MOTION":"15.08854168","OBJECT_ID":"2021-125BC","CLASSIFICATION_TYPE":"U","INCLINATION":"53.2175","ECCENTRICITY":"0.00029710","SEMIMAJOR_AXIS":"6917.837","LAUNCH_DATE":"2021-12-18","EPHEMERIS_TYPE":"0","PERIOD":"95.437","MEAN_MOTION_DOT":"-0.00000916","MEAN_MOTION_DDOT":"0.0000000000000","PERIAPSIS":"537.647"},{"OBJECT_NAME":"STARLINK-3262","EPOCH":"2022-11-13T08:16:24.338496","MEAN_ANOMALY":"334.0732","OBJECT_TYPE":"PAYLOAD","RCS_SIZE":"LARGE","COUNTRY_CODE":"US","FILE":"3653238","REF_FRAME":"TEME","APOAPSIS":"541.693","CENTER_NAME":"EARTH","ELEMENT_SET_NO":"999","GP_ID":"217626867","RA_OF_ASC_NODE":"281.5613","TLE_LINE1":"1 50207U 21125BD  22317.34472614  .00000942  00000-0  77328-4 0  9997","REV_AT_EPOCH":"5170","ARG_OF_PERICENTER":"26.0399","MEAN_MOTION_DOT":"0.00000942","PERIAPSIS":"537.854","MEAN_MOTION_DDOT":"0.0000000000000","PERIOD":"95.438","EPHEMERIS_TYPE":"0","INCLINATION":"53.2159","ECCENTRICITY":"0.00027750","SEMIMAJOR_AXIS":"6917.908","LAUNCH_DATE":"2021-12-18","CLASSIFICATION_TYPE":"U","MEAN_MOTION":"15.08830821","SITE":"AFWTR","OBJECT_ID":"2021-125BD","DECAY_DATE":null,"TIME_SYSTEM":"UTC","NORAD_CAT_ID":"50207","MEAN_ELEMENT_THEORY":"SGP4","BSTAR":"0.00007732800000","TLE_LINE2":"2 50207  53.2159 281.5613 0002775  26.0399 334.0732 15.08830821 51708"},{"ARG_OF_PERICENTER":"32.6879","RA_OF_ASC_NODE":"209.8373","GP_ID":"217692713","TLE_LINE1":"1 50803U 22001A   22317.72651290 -.00001918  00000-0 -10241-3 0  9990","REV_AT_EPOCH":"4744","ELEMENT_SET_NO":"999","APOAPSIS":"541.371","CENTER_NAME":"EARTH","COUNTRY_CODE":"US","FILE":"3653957","REF_FRAME":"TEME","MEAN_ANOMALY":"327.4258","OBJECT_TYPE":"PAYLOAD","RCS_SIZE":"LARGE","OBJECT_NAME":"STARLINK-3321","EPOCH":"2022-11-13T17:26:10.714560","TIME_SYSTEM":"UTC","NORAD_CAT_ID":"50803","MEAN_ELEMENT_THEORY":"SGP4","BSTAR":"-0.00010241000000","TLE_LINE2":"2 50803  53.2168 209.8373 0002351  32.6879 327.4258 15.08840390 47449","DECAY_DATE":null,"MEAN_MOTION":"15.08840390","SITE":"AFETR","OBJECT_ID":"2022-001A","CLASSIFICATION_TYPE":"U","ECCENTRICITY":"0.00023510","INCLINATION":"53.2168","LAUNCH_DATE":"2022-01-06","SEMIMAJOR_AXIS":"6917.879","EPHEMERIS_TYPE":"0","PERIOD":"95.438","MEAN_MOTION_DOT":"-0.00001918","PERIAPSIS":"538.118","MEAN_MOTION_DDOT":"0.0000000000000"},{"DECAY_DATE":null,"TLE_LINE2":"2 50804  53.2157 199.9892 0002125  51.7449 308.3734 15.08848588 47575","BSTAR":"-0.00010111000000","MEAN_ELEMENT_THEORY":"SGP4","TIME_SYSTEM":"UTC","NORAD_CAT_ID":"50804","CLASSIFICATION_TYPE":"U","OBJECT_ID":"2022-001B","SITE":"AFETR","MEAN_MOTION":"15.08848588","EPHEMERIS_TYPE":"0","SEMIMAJOR_AXIS":"6917.854","LAUNCH_DATE":"2022-01-06","ECCENTRICITY":"0.00021250","INCLINATION":"53.2157","MEAN_MOTION_DDOT":"0.0000000000000","PERIAPSIS":"538.249","MEAN_MOTION_DOT":"-0.00001898","PERIOD":"95.437","REV_AT_EPOCH":"4757","TLE_LINE1":"1 50804U 22001B   22317.69432818 -.00001898  00000-0 -10111-3 0  9993","RA_OF_ASC_NODE":"199.9892","GP_ID":"217693462","ARG_OF_PERICENTER":"51.7449","CENTER_NAME":"EARTH","APOAPSIS":"541.189","ELEMENT_SET_NO":"999","REF_FRAME":"TEME","FILE":"3653957","COUNTRY_CODE":"US","EPOCH":"2022-11-13T16:39:49.954752","OBJECT_NAME":"STARLINK-3323","RCS_SIZE":"LARGE","OBJECT_TYPE":"PAYLOAD","MEAN_ANOMALY":"308.3734"},{"CENTER_NAME":"EARTH","APOAPSIS":"541.093","ELEMENT_SET_NO":"999","REV_AT_EPOCH":"4748","TLE_LINE1":"1 50805U 22001C   22317.09448084  .00002251  00000-0  15942-3 0  9999","RA_OF_ASC_NODE":"202.6826","GP_ID":"217627891","ARG_OF_PERICENTER":"41.9686","EPOCH":"2022-11-13T02:16:03.144576","OBJECT_NAME":"STARLINK-3333","RCS_SIZE":"LARGE","OBJECT_TYPE":"PAYLOAD","MEAN_ANOMALY":"318.1461","REF_FRAME":"TEME","FILE":"3653238","COUNTRY_CODE":"US","CLASSIFICATION_TYPE":"U","OBJECT_ID":"2022-001C","SITE":"AFETR","MEAN_MOTION":"15.08857822","DECAY_DATE":null,"TLE_LINE2":"2 50805  53.2162 202.6826 0002027  41.9686 318.1461 15.08857822 47483","BSTAR":"0.00015942000000","MEAN_ELEMENT_THEORY":"SGP4","NORAD_CAT_ID":"50805","TIME_SYSTEM":"UTC","MEAN_MOTION_DDOT":"0.0000000000000","PERIAPSIS":"538.289","MEAN_MOTION_DOT":"0.00002251","PERIOD":"95.436","EPHEMERIS_TYPE":"0","SEMIMAJOR_AXIS":"6917.826","LAUNCH_DATE":"2022-01-06","ECCENTRICITY":"0.00020270","INCLINATION":"53.2162"}];
